[{"OBJECT_NAME":"HAWK-2C","OBJECT_ID":"2021-006CT","EPOCH":"2026-03-09T16:13:22.454976","MEAN_MOTION":15.33286436,"ECCENTRICITY":0.0006943,"INCLINATION":97.2417,"RA_OF_ASC_NODE":114.9961,"ARG_OF_PERICENTER":184.0877,"MEAN_ANOMALY":176.031,"EPHEMERIS_TYPE":0,"CLASSIFICATION_TYPE":"U","NORAD_CAT_ID":47502,"ELEMENT_SET_NO":999,"REV_AT_EPOCH":28424,"BSTAR":0.00025492914,"MEAN_MOTION_DOT":8.129e-5,"MEAN_MOTION_DDOT":0},{"OBJECT_NAME":"STARLINK-35425","OBJECT_ID":"2025-223W","EPOCH":"2026-03-09T21:12:25.371936","MEAN_MOTION":15.30220177,"ECCENTRICITY":5.463e-5,"INCLINATION":53.1607,"RA_OF_ASC_NODE":293.393,"ARG_OF_PERICENTER":104.8489,"MEAN_ANOMALY":255.2572,"EPHEMERIS_TYPE":0,"CLASSIFICATION_TYPE":"U","NORAD_CAT_ID":65874,"ELEMENT_SET_NO":999,"REV_AT_EPOCH":2423,"BSTAR":0.0011163536,"MEAN_MOTION_DOT":0.00032871,"MEAN_MOTION_DDOT":0}]
